start=new Date('2023-05-31T00:00:00.000Z').valueOf();
sats=[{"MEAN_MOTION":"15.08835240","OBJECT_TYPE":"PAYLOAD","INCLINATION":"53.2170","TIME_SYSTEM":"UTC","REV_AT_EPOCH":"5006","EPHEMERIS_TYPE":"0","ARG_OF_PERICENTER":"100.1334","APOAPSIS":"540.522","NORAD_CAT_ID":"53036","EPOCH":"2023-05-30T19:25:54.111648","TLE_LINE1":"1 53036U 22076BC  23150.80965407  .00000888  00000-0  73872-4 0  9999","OBJECT_NAME":"STARLINK-4155","CENTER_NAME":"EARTH","MEAN_MOTION_DOT":"0.00000888","COUNTRY_CODE":"US","FILE":"3921192","OBJECT_ID":"2022-076BC","MEAN_MOTION_DDOT":"0.0000000000000","SEMIMAJOR_AXIS":"6917.895","MEAN_ANOMALY":"259.9783","PERIAPSIS":"538.998","REF_FRAME":"TEME","ELEMENT_SET_NO":"999","GP_ID":"232853609","TLE_LINE2":"2 53036  53.2170 305.6039 0001102 100.1334 259.9783 15.08835240 50069","RA_OF_ASC_NODE":"305.6039","DECAY_DATE":null,"PERIOD":"95.438","ECCENTRICITY":"0.00011020","RCS_SIZE":"LARGE","LAUNCH_DATE":"2022-07-07","CLASSIFICATION_TYPE":"U","SITE":"AFETR","BSTAR":"0.00007387200000","MEAN_ELEMENT_THEORY":"SGP4"},{"DECAY_DATE":null,"PERIOD":"95.437","RA_OF_ASC_NODE":"305.3232","TLE_LINE2":"2 53037  53.2165 305.3232 0000886  94.7352 265.3742 15.08841758 50070","GP_ID":"232853859","ELEMENT_SET_NO":"999","REF_FRAME":"TEME","PERIAPSIS":"539.127","MEAN_ANOMALY":"265.3742","SEMIMAJOR_AXIS":"6917.875","MEAN_ELEMENT_THEORY":"SGP4","BSTAR":"0.00003874300000","SITE":"AFETR","CLASSIFICATION_TYPE":"U","LAUNCH_DATE":"2022-07-07","RCS_SIZE":"LARGE","ECCENTRICITY":"0.00008860","APOAPSIS":"540.353","ARG_OF_PERICENTER":"94.7352","REV_AT_EPOCH":"5007","EPHEMERIS_TYPE":"0","TIME_SYSTEM":"UTC","INCLINATION":"53.2165","OBJECT_TYPE":"PAYLOAD","MEAN_MOTION":"15.08841758","MEAN_MOTION_DDOT":"0.0000000000000","OBJECT_ID":"2022-076BD","FILE":"3921192","COUNTRY_CODE":"US","MEAN_MOTION_DOT":"0.00000329","CENTER_NAME":"EARTH","TLE_LINE1":"1 53037U 22076BD  23150.87220977  .00000329  00000-0  38743-4 0  9991","OBJECT_NAME":"STARLINK-4153","EPOCH":"2023-05-30T20:55:58.924128","NORAD_CAT_ID":"53037"},{"MEAN_ELEMENT_THEORY":"SGP4","BSTAR":"-0.00004008700000","SITE":"AFETR","CLASSIFICATION_TYPE":"U","LAUNCH_DATE":"2022-07-07","RCS_SIZE":"LARGE","ECCENTRICITY":"0.00009570","DECAY_DATE":null,"PERIOD":"95.438","RA_OF_ASC_NODE":"306.2322","TLE_LINE2":"2 53038  53.2153 306.2322 0000957  84.2261 275.8840 15.08839383 50043","GP_ID":"232855111","ELEMENT_SET_NO":"999","REF_FRAME":"TEME","PERIAPSIS":"539.085","MEAN_ANOMALY":"275.8840","SEMIMAJOR_AXIS":"6917.882","MEAN_MOTION_DDOT":"0.0000000000000","OBJECT_ID":"2022-076BE","FILE":"3921192","COUNTRY_CODE":"US","MEAN_MOTION_DOT":"-0.00000926","CENTER_NAME":"EARTH","TLE_LINE1":"1 53038U 22076BE  23150.66980842 -.00000926  00000-0 -40087-4 0  9992","OBJECT_NAME":"STARLINK-4156","EPOCH":"2023-05-30T16:04:31.447488","NORAD_CAT_ID":"53038","APOAPSIS":"540.409","ARG_OF_PERICENTER":"84.2261","REV_AT_EPOCH":"5004","EPHEMERIS_TYPE":"0","TIME_SYSTEM":"UTC","INCLINATION":"53.2153","OBJECT_TYPE":"PAYLOAD","MEAN_MOTION":"15.08839383"},{"ECCENTRICITY":"0.00033590","LAUNCH_DATE":"2022-07-11","RCS_SIZE":"LARGE","BSTAR":"0.00004536100000","SITE":"AFWTR","CLASSIFICATION_TYPE":"U","MEAN_ELEMENT_THEORY":"SGP4","PERIAPSIS":"560.678","REF_FRAME":"TEME","MEAN_ANOMALY":"267.1438","SEMIMAJOR_AXIS":"6941.144","ELEMENT_SET_NO":"999","RA_OF_ASC_NODE":"331.7838","TLE_LINE2":"2 53043  97.6586 331.7838 0003359  93.0171 267.1438 15.01260884 48044","GP_ID":"232795121","DECAY_DATE":null,"PERIOD":"95.919","NORAD_CAT_ID":"53043","TLE_LINE1":"1 53043U 22077A   23150.46033404  .00000524  00000-0  45361-4 0  9992","OBJECT_NAME":"STARLINK-4362","EPOCH":"2023-05-30T11:02:52.861056","MEAN_MOTION_DOT":"0.00000524","CENTER_NAME":"EARTH","MEAN_MOTION_DDOT":"0.0000000000000","OBJECT_ID":"2022-077A","FILE":"3920803","COUNTRY_CODE":"US","INCLINATION":"97.6586","OBJECT_TYPE":"PAYLOAD","MEAN_MOTION":"15.01260884","TIME_SYSTEM":"UTC","ARG_OF_PERICENTER":"93.0171","EPHEMERIS_TYPE":"0","REV_AT_EPOCH":"4804","APOAPSIS":"565.341"},{"DECAY_DATE":null,"PERIOD":"95.919","RA_OF_ASC_NODE":"332.1139","TLE_LINE2":"2 53044  97.6575 332.1139 0002824  74.1115 286.0421 15.01261747 48801","GP_ID":"232854110","ELEMENT_SET_NO":"999","PERIAPSIS":"561.046","REF_FRAME":"TEME","MEAN_ANOMALY":"286.0421","SEMIMAJOR_AXIS":"6941.141","MEAN_ELEMENT_THEORY":"SGP4","BSTAR":"0.00004571200000","SITE":"AFWTR","CLASSIFICATION_TYPE":"U","LAUNCH_DATE":"2022-07-11","RCS_SIZE":"LARGE","ECCENTRICITY":"0.00028240","APOAPSIS":"564.967","ARG_OF_PERICENTER":"74.1115","REV_AT_EPOCH":"4880","EPHEMERIS_TYPE":"0","TIME_SYSTEM":"UTC","INCLINATION":"97.6575","OBJECT_TYPE":"PAYLOAD","MEAN_MOTION":"15.01261747","MEAN_MOTION_DDOT":"0.0000000000000","OBJECT_ID":"2022-077B","FILE":"3921192","COUNTRY_CODE":"US","MEAN_MOTION_DOT":"0.00000528","CENTER_NAME":"EARTH","TLE_LINE1":"1 53044U 22077B   23150.78989127  .00000528  00000-0  45712-4 0  9994","OBJECT_NAME":"STARLINK-4349","EPOCH":"2023-05-30T18:57:26.605728","NORAD_CAT_ID":"53044"},{"EPOCH":"2023-05-30T22:17:23.899776","TLE_LINE1":"1 53045U 22077C   23150.92874884  .00000858  00000-0  71387-4 0  9997","OBJECT_NAME":"STARLINK-4350","NORAD_CAT_ID":"53045","COUNTRY_CODE":"US","FILE":"3921192","OBJECT_ID":"2022-077C","MEAN_MOTION_DDOT":"0.0000000000000","CENTER_NAME":"EARTH","MEAN_MOTION_DOT":"0.00000858","TIME_SYSTEM":"UTC","MEAN_MOTION":"15.01264315","OBJECT_TYPE":"PAYLOAD","INCLINATION":"97.6588","APOAPSIS":"564.930","REV_AT_EPOCH":"4882","EPHEMERIS_TYPE":"0","ARG_OF_PERICENTER":"91.1536","RCS_SIZE":"LARGE","LAUNCH_DATE":"2022-07-11","ECCENTRICITY":"0.00027830","MEAN_ELEMENT_THEORY":"SGP4","CLASSIFICATION_TYPE":"U","SITE":"AFWTR","BSTAR":"0.00007138700000","ELEMENT_SET_NO":"999","SEMIMAJOR_AXIS":"6941.134","MEAN_ANOMALY":"269.0007","REF_FRAME":"TEME","PERIAPSIS":"561.067","DECAY_DATE":null,"PERIOD":"95.919","GP_ID":"232854360","TLE_LINE2":"2 53045  97.6588 332.2266 0002783  91.1536 269.0007 15.01264315 48825","RA_OF_ASC_NODE":"332.2266"},{"BSTAR":"-0.00405000000000","CLASSIFICATION_TYPE":"U","SITE":"AFWTR","MEAN_ELEMENT_THEORY":"SGP4","ECCENTRICITY":"0.00022230","RCS_SIZE":"LARGE","LAUNCH_DATE":"2022-07-11","TLE_LINE2":"2 53046  97.6610 332.2625 0002223  79.4613 280.6861 15.00781778 48828","RA_OF_ASC_NODE":"332.2625","GP_ID":"232854611","DECAY_DATE":null,"PERIOD":"95.950","REF_FRAME":"TEME","PERIAPSIS":"562.943","SEMIMAJOR_AXIS":"6942.621","MEAN_ANOMALY":"280.6861","ELEMENT_SET_NO":"999","MEAN_MOTION_DOT":"-0.00051063","CENTER_NAME":"EARTH","OBJECT_ID":"2022-077D","MEAN_MOTION_DDOT":"0.0000000000000","COUNTRY_CODE":"US","FILE":"3921192","NORAD_CAT_ID":"53046","TLE_LINE1":"1 53046U 22077D   23150.92196592 -.00051063  00000-0 -40500-2 0  9998","OBJECT_NAME":"STARLINK-4331","EPOCH":"2023-05-30T22:07:37.855488","ARG_OF_PERICENTER":"79.4613","REV_AT_EPOCH":"4882","EPHEMERIS_TYPE":"0","APOAPSIS":"566.030","INCLINATION":"97.6610","OBJECT_TYPE":"PAYLOAD","MEAN_MOTION":"15.00781778","TIME_SYSTEM":"UTC"},{"MEAN_MOTION":"15.01261506","OBJECT_TYPE":"PAYLOAD","INCLINATION":"97.6568","TIME_SYSTEM":"UTC","REV_AT_EPOCH":"4880","EPHEMERIS_TYPE":"0","ARG_OF_PERICENTER":"74.9064","APOAPSIS":"565.088","NORAD_CAT_ID":"53047","EPOCH":"2023-05-30T18:52:06.666528","OBJECT_NAME":"STARLINK-4352","TLE_LINE1":"1 53047U 22077E   23150.78618827  .00000457  00000-0  40209-4 0  9990","CENTER_NAME":"EARTH","MEAN_MOTION_DOT":"0.00000457","FILE":"3921192","COUNTRY_CODE":"US","MEAN_MOTION_DDOT":"0.0000000000000","OBJECT_ID":"2022-077E","MEAN_ANOMALY":"285.2492","SEMIMAJOR_AXIS":"6941.142","PERIAPSIS":"560.926","REF_FRAME":"TEME","ELEMENT_SET_NO":"999","GP_ID":"232855362","RA_OF_ASC_NODE":"332.1137","TLE_LINE2":"2 53047  97.6568 332.1137 0002998  74.9064 285.2492 15.01261506 48809","PERIOD":"95.919","DECAY_DATE":null,"ECCENTRICITY":"0.00029980","LAUNCH_DATE":"2022-07-11","RCS_SIZE":"LARGE","SITE":"AFWTR","CLASSIFICATION_TYPE":"U","BSTAR":"0.00004020900000","MEAN_ELEMENT_THEORY":"SGP4"},{"APOAPSIS":"564.530","EPHEMERIS_TYPE":"0","REV_AT_EPOCH":"4881","ARG_OF_PERICENTER":"87.0827","TIME_SYSTEM":"UTC","MEAN_MOTION":"15.01261247","OBJECT_TYPE":"PAYLOAD","INCLINATION":"97.6570","COUNTRY_CODE":"US","FILE":"3921192","OBJECT_ID":"2022-077F","MEAN_MOTION_DDOT":"0.0000000000000","CENTER_NAME":"EARTH","MEAN_MOTION_DOT":"0.00000172","EPOCH":"2023-05-30T22:04:25.229280","TLE_LINE1":"1 53048U 22077F   23150.91973645  .00000172  00000-0  18025-4 0  9993","OBJECT_NAME":"STARLINK-4355","NORAD_CAT_ID":"53048","DECAY_DATE":null,"PERIOD":"95.919","GP_ID":"232853610","TLE_LINE2":"2 53048  97.6570 332.2452 0002193  87.0827 273.0648 15.01261247 48814","RA_OF_ASC_NODE":"332.2452","ELEMENT_SET_NO":"999","SEMIMAJOR_AXIS":"6941.143","MEAN_ANOMALY":"273.0648","PERIAPSIS":"561.486","REF_FRAME":"TEME","MEAN_ELEMENT_THEORY":"SGP4","CLASSIFICATION_TYPE":"U","SITE":"AFWTR","BSTAR":"0.00001802500000","RCS_SIZE":"LARGE","LAUNCH_DATE":"2022-07-11","ECCENTRICITY":"0.00021930"},{"SEMIMAJOR_AXIS":"6941.150","MEAN_ANOMALY":"266.6286","PERIAPSIS":"561.542","REF_FRAME":"TEME","ELEMENT_SET_NO":"999","GP_ID":"232853860","TLE_LINE2":"2 53049  97.6562 332.1132 0002122  93.5181 266.6286 15.01258984 48794","RA_OF_ASC_NODE":"332.1132","DECAY_DATE":null,"PERIOD":"95.919","ECCENTRICITY":"0.00021220","RCS_SIZE":"LARGE","LAUNCH_DATE":"2022-07-11","CLASSIFICATION_TYPE":"U","SITE":"AFWTR","BSTAR":"-0.00001047500000","MEAN_ELEMENT_THEORY":"SGP4","MEAN_MOTION":"15.01258984","OBJECT_TYPE":"PAYLOAD","INCLINATION":"97.6562","TIME_SYSTEM":"UTC","REV_AT_EPOCH":"4879","EPHEMERIS_TYPE":"0","ARG_OF_PERICENTER":"93.5181","APOAPSIS":"564.488","NORAD_CAT_ID":"53049","EPOCH":"2023-05-30T18:41:26.839968","OBJECT_NAME":"STARLINK-4345","TLE_LINE1":"1 53049U 22077G   23150.77878287 -.00000194  00000-0 -10475-4 0  9991","CENTER_NAME":"EARTH","MEAN_MOTION_DOT":"-0.00000194","COUNTRY_CODE":"US","FILE":"3921192","OBJECT_ID":"2022-077G","MEAN_MOTION_DDOT":"0.0000000000000"}];
